Total gap duration: 6 days, 22:52:57.230149
Total gap duration: 6 days, 22:05:46.683495
STARLINK-31405
1 59248U 24049T   24100.46334060  .00002873  00000+0  57985-4 0  9997
2 59248  43.0000 169.1681 0001137 260.0867  99.9865 15.48911977  5036
Total gap duration: 6 days, 22:12:55.529597
STARLINK-4424
1 53681U 22105AK  24100.94297993  .00001417  00000+0  11485-3 0  9996
2 53681  97.6543 342.7726 0005165  70.9661 289.2122 15.01264319 88404
Total gap duration: 6 days, 22:20:53.377095
STARLINK-3689
1 51961U 22025F   24100.92347646  .00001719  00000+0  12876-3 0  9995
2 51961  53.0566 282.3372 0001483  91.7183 268.3977 15.08027652115679
Total gap duration: 6 days, 22:06:32.425500
STARLINK-31245
1 58891U 24020R   24101.25001157  .00109052  00000+0  79127-3 0  9993
2 58891  53.1565 304.6113 0003524 277.6977 325.8845 15.72595329 12595
Total gap duration: 6 days, 22:31:45.122988
STARLINK-1846
1 47136U 20088Q   24100.31502578  .00002955  00000+0  21728-3 0  9990
2 47136  53.0546 201.2296 0001196 102.0930 258.0193 15.06385985186429
Total gap duration: 6 days, 22:02:51.594430
STARLINK-2527
1 48324U 21036BA  24101.36219362 -.00002219  00000+0 -13465-4 0  9991
2 48324  53.0531 330.4475 0000627  88.1750 271.9338 15.69709476163726
Total gap duration: 6 days, 22:30:00.243211
STARLINK-2367
1 47907U 21021AZ  24101.46318639  .00015001  00000+0  10227-2 0  9991
2 47907  53.0530 176.0780 0000980  99.0608 261.0492 15.06440158170335
Total gap duration: 6 days, 22:01:47.359814
STARLINK-6182
1 56878U 23083C   24100.92542177  .00000701  00000+0  66960-4 0  9992
2 56878  43.0026 279.0564 0001152 274.5112  85.5599 15.02534244 46556
Total gap duration: 6 days, 21:45:40.954275
STARLINK-31120
1 58778U 24011P   24100.82275482  .00004037  00000+0  30121-3 0  9991
2 58778  53.1596 298.4875 0001272  89.6072 270.5064 15.04928342 14437
Total gap duration: 6 days, 22:04:19.597654
STARLINK-1544
1 46031U 20055E   24101.47937659  .00002259  00000+0  17048-3 0  9994
2 46031  53.0550  21.5800 0001409  81.9564 278.1585 15.06408078203131
Total gap duration: 6 days, 22:05:49.015556
STARLINK-5624
1 55416U 23014AB  24101.18317698  .00000212  00000+0  25549-4 0  9995
2 55416  70.0010  45.6009 0002746 268.3908  91.6936 14.98334943 65991
Total gap duration: 6 days, 22:10:02.718263
STARLINK-1629
1 46150U 20057AK  24101.01949605  .00003339  00000+0  24299-3 0  9998
2 46150  53.0561 213.0708 0001168  97.3109 262.8013 15.06396216201424
Total gap duration: 6 days, 22:02:49.220795
STARLINK-5785
1 56031U 23042AX  24100.69017766  .00000551  00000+0  55885-4 0  9990
2 56031  43.0038 241.1834 0001609 274.2436  85.8223 15.02534847 57911
Total gap duration: 6 days, 21:45:09.266616
STARLINK-5767
1 55586U 23020T   24101.55966611 -.00000100  00000+0  76503-5 0  9990
2 55586  43.0038 197.9805 0001409 267.8379  92.2302 15.02533684 63907
Total gap duration: 6 days, 21:45:26.231243
STARLINK-3250
1 49749U 21115AB  24101.22974925 -.00002096  00000+0 -11355-3 0  9997
2 49749  53.2199  44.8693 0001508  87.6648 272.4517 15.08862167131198
Total gap duration: 6 days, 22:01:51.900607
STARLINK-1349
1 45587U 20025BJ  24101.34753941  .00001035  00000+0  88348-4 0  9995
2 45587  53.0538 331.5936 0001128  89.3547 270.7571 15.06407898219653
Total gap duration: 6 days, 22:00:13.993515
STARLINK-1176
1 45090U 20006AY  24100.85176611  .00002088  00000+0  15903-3 0  9996
2 45090  53.0541 143.8104 0001305  94.4096 265.7042 15.06396746231694
Total gap duration: 6 days, 21:58:15.087179
STARLINK-5694
1 55481U 23015AJ  24100.61848614  .00001682  00000+0  13950-3 0  9996
2 55481  43.0025 177.7020 0001239 275.6341  84.4360 15.02543631 65440
Total gap duration: 6 days, 21:46:30.032827
STARLINK-31060
1 58782U 24011T   24101.25001157  .00038242  00000+0  14234-2 0  9991
2 58782  53.1608 287.0943 0000737  47.0870 310.9875 15.27146934 14517
Total gap duration: 6 days, 22:08:41.994501
STARLINK-3104
1 49150U 21082W   24100.84972933 -.00001012  00000+0 -77058-4 0  9990
2 49150  70.0001 256.4730 0002723 272.3484  87.7364 14.98319427142493
Total gap duration: 6 days, 22:05:56.155731
STARLINK-5488
1 57250U 23094AJ  24101.04086532  .00000658  00000+0  63782-4 0  9991
2 57250  43.0058 213.7050 0001568 271.7930  88.2733 15.02536876 42356
Total gap duration: 6 days, 21:45:29.821486
STARLINK-3131
1 49427U 21104V   24101.43580854  .00000329  00000+0  38735-4 0  9992
2 49427  53.2173 123.7143 0001448  99.2709 260.8446 15.08841817134318
Total gap duration: 6 days, 22:00:04.084939
STARLINK-30258
1 57608U 23119G   24101.19458643  .00004906  00000+0  37800-3 0  9999
2 57608  42.9986 277.0701 0001014 269.6224  90.4502 15.02534453 38000
Total gap duration: 6 days, 21:45:07.687105
STARLINK-4348
1 53075U 22077AJ  24101.08152427  .00000148  00000+0  16075-4 0  9990
2 53075  97.6548 282.8767 0000818 187.2680 172.8532 15.01260702 96681
Total gap duration: 6 days, 22:20:59.671732
STARLINK-2536
1 48310U 21036AL  24101.39223692  .00002788  00000+0  20595-3 0  9990
2 48310  53.0540 346.3936 0001386  74.8489 285.2653 15.06406511163513
Total gap duration: 6 days, 22:00:11.372970
STARLINK-2495
1 48325U 21036BB  24101.39868870  .00002444  00000+0  18292-3 0  9999
2 48325  53.0543 356.3643 0001273  81.3443 278.7690 15.06401195163371
Total gap duration: 6 days, 21:56:58.661199
STARLINK-5264
1 54206U 22141BB  24101.33823622 -.00000470  00000+0 -11457-4 0  9998
2 54206  53.2121 213.9782 0000857  67.9017 292.2066 15.08837097 81290
Total gap duration: 6 days, 22:02:27.065011
STARLINK-5563
1 56135U 23046AV  24101.49867731  .00000108  00000+0  43975-5 0  9999
2 56135  42.9990 266.2641 0000610 289.1791  70.9010 15.70306963 58578
Total gap duration: 6 days, 22:21:38.739914
STARLINK-5540
1 56340U 23058Z   24100.73067511 -.00002982  00000+0 -22765-3 0  9990
2 56340  97.6546 102.5450 0001953  81.6608 278.4838 15.01259744 53265
Total gap duration: 6 days, 21:59:07.608114
STARLINK-1243
1 45234U 20012BJ  24101.53148966 -.00049364  00000+0 -39115-3 0  9992
2 45234  53.0502 284.8741 0001124  93.5419 266.5726 15.70539036228913
Total gap duration: 6 days, 22:29:42.812808
STARLINK-4605
1 53616U 22104AE  24100.78577299  .00002800  00000+0  19391-3 0  9996
2 53616  53.2154 121.4950 0001529  88.0427 272.0741 15.08850018 90379
Total gap duration: 6 days, 22:02:10.496485
STARLINK-11078
1 58710U 24002F   24101.44649962 -.00009590  00000+0 -74520-4 0  9997
2 58710  53.1586 123.2063 0001773 114.5851 245.5352 15.69663690 16623
Total gap duration: 6 days, 22:26:17.620278
STARLINK-2450
1 48113U 21027X   24101.18949861  .00001678  00000+0  13151-3 0  9998
2 48113  53.0550  67.3034 0001557  87.2614 272.8554 15.06408528166731
Total gap duration: 6 days, 22:01:23.024121
STARLINK-3617
1 51780U 22017N   24101.40633561  .00000643  00000+0  58473-4 0  9992
2 51780  53.2216 233.8282 0001879  96.9084 263.2122 15.08839203118693
Total gap duration: 6 days, 22:04:31.740297
STARLINK-3850
1 52342U 22045M   24101.22418843  .00000353  00000+0  40292-4 0  9990
2 52342  53.2167  94.7699 0001542  93.4389 266.6780 15.08839409110334
Total gap duration: 6 days, 22:04:39.867631
STARLINK-5643
1 55431U 23014AS  24101.55037207 -.00000918  00000+0 -69130-4 0  9997
2 55431  70.0022  44.8804 0002663 267.0661  93.0193 14.98336785 66049
Total gap duration: 6 days, 22:07:37.274555
STARLINK-1130 (DARKSAT)
1 44932U 20001U   24101.41113190  .00001405  00000+0  11318-3 0  9999
2 44932  53.0670 241.3128 0000468  24.5762 335.5250 15.06392068235834
Total gap duration: 6 days, 22:02:30.795951
STARLINK-2714
1 48603U 21041BC  24101.47054064  .00002846  00000+0  20995-3 0  9994
2 48603  53.0565   6.0448 0002545  88.7364 271.3917 15.06391862161516
Total gap duration: 6 days, 21:58:26.727310
STARLINK-31710
1 59378U 24062E   24101.25001157 -.01178069  00000+0 -72651-2 0  9991
2 59378  53.1659 277.3036 0000498  76.5006 220.8382 15.79115243  2337
Total gap duration: 6 days, 22:32:06.671293
STARLINK-5868
1 56483U 23064AM  24100.93329117 -.00000279  00000+0 -15600-4 0  9998
2 56483  69.9989  86.2136 0002953 271.3384  88.7436 14.98330009 51077
Total gap duration: 6 days, 22:10:08.599902
STARLINK-1342
1 45558U 20025AD  24101.38348446 -.00000613  00000+0 -22247-4 0  9996
2 45558  53.0544 341.4337 0001361  82.9278 277.1866 15.06397900219517
Total gap duration: 6 days, 22:01:51.395722
STARLINK-31164
1 58733U 24005F   24101.18684956  .00001335  00000+0  11390-3 0  9990
2 58733  43.0032  57.5155 0000717 254.4031 105.6732 15.02527930 15354
Total gap duration: 6 days, 21:45:40.806338
STARLINK-30274
1 57672U 23124K   24099.61821775  .00002656  00000+0  10854-3 0  9999
2 57672  53.1254 220.8143 0000944  75.6611 284.4493 15.28013613 36207
Total gap duration: 6 days, 22:11:58.908419
STARLINK-1423
1 45710U 20035BF  24101.53185240  .00007411  00000+0  51643-3 0  9997
2 45710  53.0476 290.7685 0001626  96.9924 263.1250 15.06360769213519
Total gap duration: 6 days, 22:01:58.701697
STARLINK-5515
1 56884U 23083J   24100.89989286  .00001616  00000+0  13470-3 0  9994
2 56884  43.0040 278.8631 0001456 264.4640  95.6036 15.02535628 46557
Total gap duration: 6 days, 21:45:29.110927
STARLINK-5959
1 56454U 23064G   24100.76246764  .00000832  00000+0  77554-4 0  9992
2 56454  69.9983 106.6964 0003163 269.6036  90.4760 14.98320893 50555
Total gap duration: 6 days, 22:07:16.477966
STARLINK-5522
1 56498U 23064BC  24101.17923411  .00000265  00000+0  30041-4 0  9997
2 56498  70.0000  65.6000 0003060 271.0792  89.0016 14.98331962 51966
Total gap duration: 6 days, 22:10:15.549292
STARLINK-5810
1 55776U 23028AM  24101.48520706 -.00000418  00000+0 -27231-4 0  9998
2 55776  70.0009 184.6851 0003010 270.4216  89.6598 14.98334723 61957
Total gap duration: 6 days, 22:14:02.320908
STARLINK-30237
1 57437U 23105H   24100.30989984  .00001447  00000+0  12214-3 0  9992
2 57437  43.0047 102.0549 0000993 269.5485  90.5244 15.02537204 40352
Total gap duration: 6 days, 21:44:56.524985
STARLINK-30260
1 57524U 23115D   24100.55035951 -.00003269  00000+0 -22703-3 0  9993
2 57524  43.0026 203.8485 0001801 283.6818  76.3823 15.02536435 37920
